{"type": "FeatureCollection", "features": [ {"type": "Feature", "properties": {"norad_id": 34823, "name": "COSMOS 2251 DEB", "group": "cosmos-2251-debris", "lat": -9.789764714315107, "lon": 79.41595433031735, "alt_km": 821.882634202093, "timestamp": "2025-12-23T07:45:09.800390+00:00", "meta": {"OBJECT_NAME": "COSMOS 2251 DEB", "OBJECT_ID": "1993-036ABN", "EPOCH": "2025-12-22T05:23:51.891360", "MEAN_MOTION": 14.54985842, "ECCENTRICITY": 0.01540618, "INCLINATION": 74.0418, "RA_OF_ASC_NODE": 84.324, "ARG_OF_PERICENTER": 166.7213, "MEAN_ANOMALY": 193.8079, "EPHEMERIS_TYPE": 0, "CLASSIFICATION_TYPE": "U", "NORAD_CAT_ID": 34823, "ELEMENT_SET_NO": 999, "REV_AT_EPOCH": 88519, "BSTAR": 0.00054126655, "MEAN_MOTION_DOT": 2.702e-05, "MEAN_MOTION_DDOT": 0}, "tle": {"line1": "1 34823U 93036ABN 25356.22490615  .00002702  00000+0  54127-3 0  9993", "line2": "2 34823  74.0418  84.3240 0154061 166.7213 193.8079 14.54985842885198"}}, "geometry": {"type": "Point", "coordinates": [79.41595433031735, -9.789764714315107]}}, {"type": "Feature", "properties": {"norad_id": 34845, "name": "COSMOS 2251 DEB", "group": "cosmos-2251-debris", "lat": -26.612950071298858, "lon": 120.34513359025888, "alt_km": 733.0656626290311, "timestamp": "2025-12-23T07:45:09.800400+00:00", "meta": {"OBJECT_NAME": "COSMOS 2251 DEB", "OBJECT_ID": "1993-036ABP", "EPOCH": "2025-12-19T17:31:51.884832", "MEAN_MOTION": 14.45872035, "ECCENTRICITY": 0.00225932, "INCLINATION": 74.0244, "RA_OF_ASC_NODE": 135.3011, "ARG_OF_PERICENTER": 295.1391, "MEAN_ANOMALY": 64.7423, "EPHEMERIS_TYPE": 0, "CLASSIFICATION_TYPE": "U", "NORAD_CAT_ID": 34845, "ELEMENT_SET_NO": 999, "REV_AT_EPOCH": 87567, "BSTAR": 0.00020260782, "MEAN_MOTION_DOT": 6.95e-06, "MEAN_MOTION_DDOT": 0}, "tle": {"line1": "1 34845U 93036ABP 25353.73046163  .00000695  00000+0  20261-3 0  9996", "line2": "2 34845  74.0244 135.3011 0022593 295.1391  64.7423 14.45872035875670"}}, "geometry": {"type": "Point", "coordinates": [120.34513359025888, -26.612950071298858]}}, {"type": "Feature", "properties": {"norad_id": 34846, "name": "COSMOS 2251 DEB", "group": "cosmos-2251-debris", "lat": -34.694006862744665, "lon": -129.45035786430364, "alt_km": 722.5998470384584, "timestamp": "2025-12-23T07:45:09.800411+00:00", "meta": {"OBJECT_NAME": "COSMOS 2251 DEB", "OBJECT_ID": "1993-036ABQ", "EPOCH": "2025-12-22T20:18:23.822784", "MEAN_MOTION": 14.47267478, "ECCENTRICITY": 0.00262159, "INCLINATION": 74.0301, "RA_OF_ASC_NODE": 242.8755, "ARG_OF_PERICENTER": 308.0511, "MEAN_ANOMALY": 51.8282, "EPHEMERIS_TYPE": 0, "CLASSIFICATION_TYPE": "U", "NORAD_CAT_ID": 34846, "ELEMENT_SET_NO": 999, "REV_AT_EPOCH": 87550, "BSTAR": 0.00072003005, "MEAN_MOTION_DOT": 2.618e-05, "MEAN_MOTION_DDOT": 0}, "tle": {"line1": "1 34846U 93036ABQ 25356.84610906  .00002618  00000+0  72003-3 0  9992", "line2": "2 34846  74.0301 242.8755 0026215 308.0511  51.8282 14.47267478875500"}}, "geometry": {"type": "Point", "coordinates": [-129.45035786430364, -34.694006862744665]}}, {"type": "Feature", "properties": {"norad_id": 34852, "name": "COSMOS 2251 DEB", "group": "cosmos-2251-debris", "lat": 0.10068983502836044, "lon": -116.46215756410884, "alt_km": 759.5536674683799, "timestamp": "2025-12-23T07:45:09.800420+00:00", "meta": {"OBJECT_NAME": "COSMOS 2251 DEB", "OBJECT_ID": "1993-036ABW", "EPOCH": "2025-12-22T10:01:54.526080", "MEAN_MOTION": 14.37012127, "ECCENTRICITY": 0.00166159, "INCLINATION": 74.0324, "RA_OF_ASC_NODE": 245.1729, "ARG_OF_PERICENTER": 346.342, "MEAN_ANOMALY": 13.7281, "EPHEMERIS_TYPE": 0, "CLASSIFICATION_TYPE": "U", "NORAD_CAT_ID": 34852, "ELEMENT_SET_NO": 999, "REV_AT_EPOCH": 87673, "BSTAR": 0.00010888477, "MEAN_MOTION_DOT": 2.97e-06, "MEAN_MOTION_DDOT": 0}, "tle": {"line1": "1 34852U 93036ABW 25356.41799220  .00000297  00000+0  10888-3 0  9993", "line2": "2 34852  74.0324 245.1729 0016615 346.3420  13.7281 14.37012127876736"}}, "geometry": {"type": "Point", "coordinates": [-116.46215756410884, 0.10068983502836044]}}, {"type": "Feature", "properties": {"norad_id": 34854, "name": "COSMOS 2251 DEB", "group": "cosmos-2251-debris", "lat": -24.69954541843338, "lon": 130.26845738261994, "alt_km": 642.3112686545655, "timestamp": "2025-12-23T07:45:09.800430+00:00", "meta": {"OBJECT_NAME": "COSMOS 2251 DEB", "OBJECT_ID": "1993-036ABY", "EPOCH": "2025-12-20T16:27:30.286080", "MEAN_MOTION": 14.76695376, "ECCENTRICITY": 0.00660109, "INCLINATION": 74.029, "RA_OF_ASC_NODE": 143.0056, "ARG_OF_PERICENTER": 253.0888, "MEAN_ANOMALY": 106.3042, "EPHEMERIS_TYPE": 0, "CLASSIFICATION_TYPE": "U", "NORAD_CAT_ID": 34854, "ELEMENT_SET_NO": 999, "REV_AT_EPOCH": 71999, "BSTAR": 0.00047616561, "MEAN_MOTION_DOT": 3.419e-05, "MEAN_MOTION_DDOT": 0}, "tle": {"line1": "1 34854U 93036ABY 25354.68576720  .00003419  00000+0  47617-3 0  9999", "line2": "2 34854  74.0290 143.0056 0066010 253.0888 106.3042 14.76695376719999"}}, "geometry": {"type": "Point", "coordinates": [130.26845738261994, -24.69954541843338]}}, {"type": "Feature", "properties": {"norad_id": 34856, "name": "COSMOS 2251 DEB", "group": "cosmos-2251-debris", "lat": 72.96728070867064, "lon": 173.5452458784386, "alt_km": 544.2249557390969, "timestamp": "2025-12-23T07:45:09.800440+00:00", "meta": {"OBJECT_NAME": "COSMOS 2251 DEB", "OBJECT_ID": "1993-036ACA", "EPOCH": "2025-12-22T22:32:30.098400", "MEAN_MOTION": 15.06548728, "ECCENTRICITY": 0.00313651, "INCLINATION": 73.9962, "RA_OF_ASC_NODE": 63.8671, "ARG_OF_PERICENTER": 199.9477, "MEAN_ANOMALY": 335.6172, "EPHEMERIS_TYPE": 0, "CLASSIFICATION_TYPE": "U", "NORAD_CAT_ID": 34856, "ELEMENT_SET_NO": 999, "REV_AT_EPOCH": 89265, "BSTAR": 0.0017113125, "MEAN_MOTION_DOT": 0.00025654, "MEAN_MOTION_DDOT": 0}, "tle": {"line1": "1 34856U 93036ACA 25356.93923725  .00025654  00000+0  17113-2 0  9994", "line2": "2 34856  73.9962  63.8671 0031365 199.9477 335.6172 15.06548728892652"}}, "geometry": {"type": "Point", "coordinates": [173.5452458784386, 72.96728070867064]}}, {"type": "Feature", "properties": {"norad_id": 34857, "name": "COSMOS 2251 DEB", "group": "cosmos-2251-debris", "lat": 70.29095844316039, "lon": -146.50295249502736, "alt_km": 702.8796261216949, "timestamp": "2025-12-23T07:45:09.800451+00:00", "meta": {"OBJECT_NAME": "COSMOS 2251 DEB", "OBJECT_ID": "1993-036ACB", "EPOCH": "2025-12-22T17:10:15.999744", "MEAN_MOTION": 14.58984962, "ECCENTRICITY": 0.00654116, "INCLINATION": 74.0156, "RA_OF_ASC_NODE": 87.8006, "ARG_OF_PERICENTER": 210.4107, "MEAN_ANOMALY": 302.1039, "EPHEMERIS_TYPE": 0, "CLASSIFICATION_TYPE": "U", "NORAD_CAT_ID": 34857, "ELEMENT_SET_NO": 999, "REV_AT_EPOCH": 88046, "BSTAR": 0.0010262186, "MEAN_MOTION_DOT": 4.934e-05, "MEAN_MOTION_DDOT": 0}, "tle": {"line1": "1 34857U 93036ACB 25356.71546296  .00004934  00000+0  10262-2 0  9991", "line2": "2 34857  74.0156  87.8006 0065411 210.4107 302.1039 14.58984962880463"}}, "geometry": {"type": "Point", "coordinates": [-146.50295249502736, 70.29095844316039]}}, {"type": "Feature", "properties": {"norad_id": 34859, "name": "COSMOS 2251 DEB", "group": "cosmos-2251-debris", "lat": 46.67188409594675, "lon": -24.705739823598716, "alt_km": 511.8154625934385, "timestamp": "2025-12-23T07:45:09.800461+00:00", "meta": {"OBJECT_NAME": "COSMOS 2251 DEB", "OBJECT_ID": "1993-036ACD", "EPOCH": "2025-12-20T00:39:03.765024", "MEAN_MOTION": 15.15832734, "ECCENTRICITY": 0.00020914, "INCLINATION": 74.0278, "RA_OF_ASC_NODE": 324.4843, "ARG_OF_PERICENTER": 20.5726, "MEAN_ANOMALY": 48.6407, "EPHEMERIS_TYPE": 0, "CLASSIFICATION_TYPE": "U", "NORAD_CAT_ID": 34859, "ELEMENT_SET_NO": 999, "REV_AT_EPOCH": 88469, "BSTAR": 0.0027292363, "MEAN_MOTION_DOT": 0.00052535, "MEAN_MOTION_DDOT": 0}, "tle": {"line1": "1 34859U 93036ACD 25354.02712691  .00052535  00000+0  27292-2 0  9990", "line2": "2 34859  74.0278 324.4843 0002091  20.5726  48.6407 15.15832734884694"}}, "geometry": {"type": "Point", "coordinates": [-24.705739823598716, 46.67188409594675]}}, {"type": "Feature", "properties": {"norad_id": 34861, "name": "COSMOS 2251 DEB", "group": "cosmos-2251-debris", "lat": -13.552140037366375, "lon": -146.81672011522696, "alt_km": 567.0348678401715, "timestamp": "2025-12-23T07:45:09.800471+00:00", "meta": {"OBJECT_NAME": "COSMOS 2251 DEB", "OBJECT_ID": "1993-036ACF", "EPOCH": "2025-12-22T20:29:45.163680", "MEAN_MOTION": 15.03156341, "ECCENTRICITY": 0.00082362, "INCLINATION": 74.0169, "RA_OF_ASC_NODE": 30.1803, "ARG_OF_PERICENTER": 19.7452, "MEAN_ANOMALY": 157.1741, "EPHEMERIS_TYPE": 0, "CLASSIFICATION_TYPE": "U", "NORAD_CAT_ID": 34861, "ELEMENT_SET_NO": 999, "REV_AT_EPOCH": 88244, "BSTAR": 0.0025983584, "MEAN_MOTION_DOT": 0.00035279, "MEAN_MOTION_DDOT": 0}, "tle": {"line1": "1 34861U 93036ACF 25356.85399495  .00035279  00000+0  25984-2 0  9991", "line2": "2 34861  74.0169  30.1803 0008236  19.7452 157.1741 15.03156341882444"}}, "geometry": {"type": "Point", "coordinates": [-146.81672011522696, -13.552140037366375]}}, {"type": "Feature", "properties": {"norad_id": 34874, "name": "COSMOS 2251 DEB", "group": "cosmos-2251-debris", "lat": 44.52033070220628, "lon": -142.01607165797273, "alt_km": 746.5120240060069, "timestamp": "2025-12-23T07:45:09.800481+00:00", "meta": {"OBJECT_NAME": "COSMOS 2251 DEB", "OBJECT_ID": "1993-036ACM", "EPOCH": "2025-12-22T04:32:10.055328", "MEAN_MOTION": 14.36351572, "ECCENTRICITY": 0.00505582, "INCLINATION": 74.0394, "RA_OF_ASC_NODE": 56.4116, "ARG_OF_PERICENTER": 78.6258, "MEAN_ANOMALY": 312.4475, "EPHEMERIS_TYPE": 0, "CLASSIFICATION_TYPE": "U", "NORAD_CAT_ID": 34874, "ELEMENT_SET_NO": 999, "REV_AT_EPOCH": 87180, "BSTAR": 0.00076191071, "MEAN_MOTION_DOT": 2.237e-05, "MEAN_MOTION_DDOT": 0}, "tle": {"line1": "1 34874U 93036ACM 25356.18900527  .00002237  00000+0  76191-3 0  9990", "line2": "2 34874  74.0394  56.4116 0050558  78.6258 312.4475 14.36351572871804"}}, "geometry": {"type": "Point", "coordinates": [-142.01607165797273, 44.52033070220628]}}]}